QIANFAN-49              
1 62250U 24232P   25336.84153135  .00000161  00000+0  23048-3 0  9994
2 62250  89.0036  42.2337 0013381 216.3397 143.6846 13.50975997 66505
QIANFAN-50              
1 62251U 24232Q   25336.79214389  .00000140  00000+0  19794-3 0  9998
2 62251  89.0042  42.2462 0014982 218.7267 141.2811 13.50977442 66527
QIANFAN-51              
1 62252U 24232R   25336.77569995  .00000155  00000+0  22188-3 0  9990
2 62252  89.0036  42.2425 0012366 221.3768 138.6447 13.50975677 66512
QIANFAN-52              
1 62253U 24232S   25336.80448929  .00000067  00000+0  84915-4 0  9997
2 62253  89.0032  42.1135 0014605 214.2019 145.8193 13.50973652 66603
QIANFAN-53              
1 62254U 24232T   25336.85798557  .00000151  00000+0  21521-3 0  9995
2 62254  89.0039  42.2119 0013456 214.6421 145.3854 13.50976230 66578
QIANFAN-54              
1 62255U 24232U   25336.82510372  .00000150  00000+0  21434-3 0  9992
2 62255  89.0030  41.8945 0000768 193.8376 166.2754 13.50976400 98071
QIANFAN-55              
1 62785U 25016A   25336.85127472  .00000124  00000+0  17370-3 0  9994
2 62785  88.9775 104.2293 0017484  22.4994 337.6920 13.50983891 45858
QIANFAN-56              
1 62786U 25016B   25336.79355706  .00000142  00000+0  20088-3 0  9991
2 62786  88.9748 104.0744 0016212  25.4800 334.7147 13.50975041 45896
